{"type": "FeatureCollection", "features": [{"type": "Feature", "properties": {"norad_id": 26766, "name": "INTELSAT 10 (IS-10)", "group": "intelsat", "lat": 6.335288641723799, "lon": 107.7837639839868, "alt_km": 36156.598411642764, "timestamp": "2025-12-18T17:50:14.623523+00:00", "meta": {"OBJECT_NAME": "INTELSAT 10 (IS-10)", "OBJECT_ID": "2001-019A", "EPOCH": "2025-12-18T03:25:21.560160", "MEAN_MOTION": 0.9907635, "ECCENTRICITY": 0.00076765, "INCLINATION": 8.6418, "RA_OF_ASC_NODE": 61.1029, "ARG_OF_PERICENTER": 228.0739, "MEAN_ANOMALY": 324.7094, "EPHEMERIS_TYPE": 0, "CLASSIFICATION_TYPE": "U", "NORAD_CAT_ID": 26766, "ELEMENT_SET_NO": 999, "REV_AT_EPOCH": 4378, "BSTAR": 0, "MEAN_MOTION_DOT": -1.75e-06, "MEAN_MOTION_DDOT": 0}, "tle": {"line1": "1 26766U 01019A   25352.14261065 -.00000175  00000+0  00000+0 0  9992", "line2": "2 26766   8.6418  61.1029 0007676 228.0739 324.7094  0.99076350 43782"}}, "geometry": {"type": "Point", "coordinates": [107.7837639839868, 6.335288641723799]}}, {"type": "Feature", "properties": {"norad_id": 26900, "name": "INTELSAT 902 (IS-902)", "group": "intelsat", "lat": -4.423056729794428, "lon": -55.06497616333939, "alt_km": 35772.93791674785, "timestamp": "2025-12-18T17:50:14.623546+00:00", "meta": {"OBJECT_NAME": "INTELSAT 902 (IS-902)", "OBJECT_ID": "2001-039A", "EPOCH": "2025-12-15T13:09:02.081664", "MEAN_MOTION": 1.0027087, "ECCENTRICITY": 0.00045028, "INCLINATION": 5.6536, "RA_OF_ASC_NODE": 74.0372, "ARG_OF_PERICENTER": 189.6359, "MEAN_ANOMALY": 327.9329, "EPHEMERIS_TYPE": 0, "CLASSIFICATION_TYPE": "U", "NORAD_CAT_ID": 26900, "ELEMENT_SET_NO": 999, "REV_AT_EPOCH": 8885, "BSTAR": 0, "MEAN_MOTION_DOT": -2.65e-06, "MEAN_MOTION_DDOT": 0}, "tle": {"line1": "1 26900U 01039A   25349.54794076 -.00000265  00000+0  00000+0 0  9997", "line2": "2 26900   5.6536  74.0372 0004502 189.6359 327.9329  1.00270870 88858"}}, "geometry": {"type": "Point", "coordinates": [-55.06497616333939, -4.423056729794428]}}, {"type": "Feature", "properties": {"norad_id": 27380, "name": "INTELSAT 904 (IS-904)", "group": "intelsat", "lat": -6.17743452965662, "lon": -36.4421129524196, "alt_km": 35779.89165652883, "timestamp": "2025-12-18T17:50:14.623561+00:00", "meta": {"OBJECT_NAME": "INTELSAT 904 (IS-904)", "OBJECT_ID": "2002-007A", "EPOCH": "2025-12-18T01:09:35.057088", "MEAN_MOTION": 1.00271697, "ECCENTRICITY": 0.00016961, "INCLINATION": 6.4672, "RA_OF_ASC_NODE": 71.3717, "ARG_OF_PERICENTER": 245.1992, "MEAN_ANOMALY": 116.2426, "EPHEMERIS_TYPE": 0, "CLASSIFICATION_TYPE": "U", "NORAD_CAT_ID": 27380, "ELEMENT_SET_NO": 999, "REV_AT_EPOCH": 4995, "BSTAR": 0, "MEAN_MOTION_DOT": -2.06e-06, "MEAN_MOTION_DDOT": 0}, "tle": {"line1": "1 27380U 02007A   25352.04832242 -.00000206  00000+0  00000+0 0  9998", "line2": "2 27380   6.4672  71.3717 0001696 245.1992 116.2426  1.00271697 49959"}}, "geometry": {"type": "Point", "coordinates": [-36.4421129524196, -6.17743452965662]}}, {"type": "Feature", "properties": {"norad_id": 27426, "name": "DIRECTV 5 (TEMPO 1)", "group": "intelsat", "lat": 0.9347418646430493, "lon": -114.94238780848364, "alt_km": 35774.444030533006, "timestamp": "2025-12-18T17:50:14.623574+00:00", "meta": {"OBJECT_NAME": "DIRECTV 5 (TEMPO 1)", "OBJECT_ID": "2002-023A", "EPOCH": "2025-12-18T05:54:42.500736", "MEAN_MOTION": 1.0027274, "ECCENTRICITY": 0.00034076, "INCLINATION": 4.4155, "RA_OF_ASC_NODE": 77.589, "ARG_OF_PERICENTER": 206.3889, "MEAN_ANOMALY": 141.6968, "EPHEMERIS_TYPE": 0, "CLASSIFICATION_TYPE": "U", "NORAD_CAT_ID": 27426, "ELEMENT_SET_NO": 999, "REV_AT_EPOCH": 8630, "BSTAR": 0, "MEAN_MOTION_DOT": -3.6e-07, "MEAN_MOTION_DDOT": 0}, "tle": {"line1": "1 27426U 02023A   25352.24632524 -.00000036  00000+0  00000+0 0  9991", "line2": "2 27426   4.4155  77.5890 0003407 206.3889 141.6968  1.00272740 86303"}}, "geometry": {"type": "Point", "coordinates": [-114.94238780848364, 0.9347418646430493]}}, {"type": "Feature", "properties": {"norad_id": 27438, "name": "INTELSAT 905 (IS-905)", "group": "intelsat", "lat": 3.507944448677058, "lon": -141.91256289125144, "alt_km": 35778.842093013765, "timestamp": "2025-12-18T17:50:14.623587+00:00", "meta": {"OBJECT_NAME": "INTELSAT 905 (IS-905)", "OBJECT_ID": "2002-027A", "EPOCH": "2025-12-18T06:36:35.632224", "MEAN_MOTION": 1.00271763, "ECCENTRICITY": 0.00026227, "INCLINATION": 6.2988, "RA_OF_ASC_NODE": 71.9922, "ARG_OF_PERICENTER": 198.5826, "MEAN_ANOMALY": 138.5031, "EPHEMERIS_TYPE": 0, "CLASSIFICATION_TYPE": "U", "NORAD_CAT_ID": 27438, "ELEMENT_SET_NO": 999, "REV_AT_EPOCH": 4954, "BSTAR": 0, "MEAN_MOTION_DOT": 1.13e-06, "MEAN_MOTION_DDOT": 0}, "tle": {"line1": "1 27438U 02027A   25352.27541241  .00000113  00000+0  00000+0 0  9991", "line2": "2 27438   6.2988  71.9922 0002622 198.5826 138.5031  1.00271763 49540"}}, "geometry": {"type": "Point", "coordinates": [-141.91256289125144, 3.507944448677058]}}, {"type": "Feature", "properties": {"norad_id": 27445, "name": "GALAXY 3C (G-3C)", "group": "intelsat", "lat": -0.01924321015158117, "lon": -99.69245050805652, "alt_km": 35787.066681843964, "timestamp": "2025-12-18T17:50:14.623599+00:00", "meta": {"OBJECT_NAME": "GALAXY 3C (G-3C)", "OBJECT_ID": "2002-030A", "EPOCH": "2025-12-18T06:03:28.954944", "MEAN_MOTION": 1.00271889, "ECCENTRICITY": 0.00011154, "INCLINATION": 3.2771, "RA_OF_ASC_NODE": 80.4507, "ARG_OF_PERICENTER": 77.8152, "MEAN_ANOMALY": 284.8606, "EPHEMERIS_TYPE": 0, "CLASSIFICATION_TYPE": "U", "NORAD_CAT_ID": 27445, "ELEMENT_SET_NO": 999, "REV_AT_EPOCH": 4468, "BSTAR": 0, "MEAN_MOTION_DOT": -1.3e-06, "MEAN_MOTION_DDOT": 0}, "tle": {"line1": "1 27445U 02030A   25352.25241846 -.00000130  00000+0  00000+0 0  9999", "line2": "2 27445   3.2771  80.4507 0001115  77.8152 284.8606  1.00271889 44688"}}, "geometry": {"type": "Point", "coordinates": [-99.69245050805652, -0.01924321015158117]}}, {"type": "Feature", "properties": {"norad_id": 27513, "name": "INTELSAT 906 (IS-906)", "group": "intelsat", "lat": -1.433563987485216, "lon": 59.38745833241609, "alt_km": 35808.59707116704, "timestamp": "2025-12-18T17:50:14.623611+00:00", "meta": {"OBJECT_NAME": "INTELSAT 906 (IS-906)", "OBJECT_ID": "2002-041A", "EPOCH": "2025-12-17T18:46:06.275712", "MEAN_MOTION": 1.00272325, "ECCENTRICITY": 0.00062967, "INCLINATION": 5.3419, "RA_OF_ASC_NODE": 75.1722, "ARG_OF_PERICENTER": 196.6249, "MEAN_ANOMALY": 160.508, "EPHEMERIS_TYPE": 0, "CLASSIFICATION_TYPE": "U", "NORAD_CAT_ID": 27513, "ELEMENT_SET_NO": 999, "REV_AT_EPOCH": 8520, "BSTAR": 0, "MEAN_MOTION_DOT": 3.3e-07, "MEAN_MOTION_DDOT": 0}, "tle": {"line1": "1 27513U 02041A   25351.78201708  .00000033  00000+0  00000+0 0  9998", "line2": "2 27513   5.3419  75.1722 0006296 196.6249 160.5080  1.00272325 85203"}}, "geometry": {"type": "Point", "coordinates": [59.38745833241609, -1.433563987485216]}}, {"type": "Feature", "properties": {"norad_id": 27954, "name": "GALAXY 13 (HORIZONS-1)", "group": "intelsat", "lat": 0.8179176846159913, "lon": -154.84875777506554, "alt_km": 35780.756712080125, "timestamp": "2025-12-18T17:50:14.623624+00:00", "meta": {"OBJECT_NAME": "GALAXY 13 (HORIZONS-1)", "OBJECT_ID": "2003-044A", "EPOCH": "2025-12-18T02:18:36.407808", "MEAN_MOTION": 1.00273938, "ECCENTRICITY": 0.00021087, "INCLINATION": 0.95, "RA_OF_ASC_NODE": 86.4036, "ARG_OF_PERICENTER": 178.2321, "MEAN_ANOMALY": 66.9903, "EPHEMERIS_TYPE": 0, "CLASSIFICATION_TYPE": "U", "NORAD_CAT_ID": 27954, "ELEMENT_SET_NO": 999, "REV_AT_EPOCH": 4475, "BSTAR": 0, "MEAN_MOTION_DOT": 1.57e-06, "MEAN_MOTION_DDOT": 0}, "tle": {"line1": "1 27954U 03044A   25352.09625472  .00000157  00000+0  00000+0 0  9991", "line2": "2 27954   0.9500  86.4036 0002108 178.2321  66.9903  1.00273938 44751"}}, "geometry": {"type": "Point", "coordinates": [-154.84875777506554, 0.8179176846159913]}}, {"type": "Feature", "properties": {"norad_id": 28358, "name": "INTELSAT 10-02", "group": "intelsat", "lat": -0.015631250332977128, "lon": -5.79964100860646, "alt_km": 35783.27164993231, "timestamp": "2025-12-18T17:50:14.623636+00:00", "meta": {"OBJECT_NAME": "INTELSAT 10-02", "OBJECT_ID": "2004-022A", "EPOCH": "2025-12-18T02:29:38.637888", "MEAN_MOTION": 1.00272153, "ECCENTRICITY": 9.544e-05, "INCLINATION": 0.0227, "RA_OF_ASC_NODE": 70.9832, "ARG_OF_PERICENTER": 235.3439, "MEAN_ANOMALY": 177.0954, "EPHEMERIS_TYPE": 0, "CLASSIFICATION_TYPE": "U", "NORAD_CAT_ID": 28358, "ELEMENT_SET_NO": 999, "REV_AT_EPOCH": 7874, "BSTAR": 0, "MEAN_MOTION_DOT": 1.4e-07, "MEAN_MOTION_DDOT": 0}, "tle": {"line1": "1 28358U 04022A   25352.10391942  .00000014  00000+0  00000+0 0  9993", "line2": "2 28358   0.0227  70.9832 0000954 235.3439 177.0954  1.00272153 78745"}}, "geometry": {"type": "Point", "coordinates": [-5.79964100860646, -0.015631250332977128]}}, {"type": "Feature", "properties": {"norad_id": 28626, "name": "XM-3 (RHYTHM)", "group": "intelsat", "lat": 0.024623374127615987, "lon": 80.95222114550063, "alt_km": 36159.45789003095, "timestamp": "2025-12-18T17:50:14.623649+00:00", "meta": {"OBJECT_NAME": "XM-3 (RHYTHM)", "OBJECT_ID": "2005-008A", "EPOCH": "2025-12-18T04:57:38.619072", "MEAN_MOTION": 0.98950393, "ECCENTRICITY": 0.00018344, "INCLINATION": 0.1884, "RA_OF_ASC_NODE": 81.8915, "ARG_OF_PERICENTER": 277.9492, "MEAN_ANOMALY": 249.976, "EPHEMERIS_TYPE": 0, "CLASSIFICATION_TYPE": "U", "NORAD_CAT_ID": 28626, "ELEMENT_SET_NO": 999, "REV_AT_EPOCH": 4080, "BSTAR": 0, "MEAN_MOTION_DOT": 2.6e-07, "MEAN_MOTION_DDOT": 0}, "tle": {"line1": "1 28626U 05008A   25352.20669698  .00000026  00000+0  00000+0 0  9996", "line2": "2 28626   0.1884  81.8915 0001834 277.9492 249.9760  0.98950393 40800"}}, "geometry": {"type": "Point", "coordinates": [80.95222114550063, 0.024623374127615987]}}]}